<?xml version="1.0" encoding="UTF-8"?>
<osm version="0.6" generator="Overpass API">
<note>The data included in this document is from www.openstreetmap.org. The data is made available under ODbL.</note>
<meta osm_base="2015-08-11T11:06:01Z"/>

  <node id="261679019" lat="50.7676169" lon="7.1037218">
    <tag k="VRS:gemeinde" v="TROISDORF"/>
    <tag k="VRS:ortsteil" v="Bergheim"/>
    <tag k="VRS:ref" v="54542"/>
    <tag k="bus" v="yes"/>
    <tag k="highway" v="bus_stop"/>
    <tag k="name" v="Fährhaus"/>
    <tag k="public_transport" v="platform"/>
    <tag k="shelter" v="yes"/>
  </node>
  <node id="262566623" lat="50.7028243" lon="7.1517624">
    <tag k="VRS:gemeinde" v="BONN"/>
    <tag k="VRS:ortsteil" v="Plittersdorf"/>
    <tag k="VRS:ref" v="66737"/>
    <tag k="bus" v="yes"/>
    <tag k="highway" v="bus_stop"/>
    <tag k="name" v="Kennedyallee"/>
    <tag k="operator" v="SWB Bus und Bahn Verkehrs-GmbH"/>
    <tag k="public_transport" v="platform"/>
    <tag k="shelter" v="yes"/>
    <tag k="wheelchair" v="yes"/>
  </node>
  <node id="262567078" lat="50.7061234" lon="7.1456981">
    <tag k="VRS:gemeinde" v="BONN"/>
    <tag k="VRS:ortsteil" v="Hochkreuz"/>
    <tag k="VRS:ref" v="66631"/>
    <tag k="bus" v="yes"/>
    <tag k="highway" v="bus_stop"/>
    <tag k="name" v="Ludwig-Erhard-Allee"/>
    <tag k="note" v="umbenannt am 2014-12-14"/>
    <tag k="operator" v="SWB Bus und Bahn Verkehrs-GmbH"/>
    <tag k="public_transport" v="platform"/>
    <tag k="shelter" v="yes"/>
    <tag k="wheelchair" v="yes"/>
  </node>
  <node id="262567226" lat="50.7073303" lon="7.1439902">
    <tag k="VRS:gemeinde" v="BONN"/>
    <tag k="VRS:ortsteil" v="Hochkreuz"/>
    <tag k="VRS:ref" v="66631"/>
    <tag k="bus" v="yes"/>
    <tag k="highway" v="bus_stop"/>
    <tag k="name" v="Ludwig-Erhard-Allee"/>
    <tag k="note" v="umbenannt am 2014-12-14"/>
    <tag k="operator" v="SWB Bus und Bahn Verkehrs-GmbH"/>
    <tag k="public_transport" v="platform"/>
    <tag k="shelter" v="yes"/>
    <tag k="wheelchair" v="yes"/>
  </node>
  <node id="262900143" lat="50.7223559" lon="7.1434915">
    <tag k="VRS:gemeinde" v="BONN"/>
    <tag k="VRS:ortsteil" v="Beuel"/>
    <tag k="VRS:ref" v="65437"/>
    <tag k="bus" v="yes"/>
    <tag k="highway" v="bus_stop"/>
    <tag k="name" v="T-Mobile"/>
    <tag k="public_transport" v="platform"/>
    <tag k="shelter" v="yes"/>
    <tag k="wheelchair" v="yes"/>
  </node>
  <node id="262901167" lat="50.7422652" lon="7.1351242">
    <tag k="VRS:gemeinde" v="BONN"/>
    <tag k="VRS:ortsteil" v="Beuel"/>
    <tag k="VRS:ref" v="65344"/>
    <tag k="bus" v="yes"/>
    <tag k="highway" v="bus_stop"/>
    <tag k="name" v="Röhfeldstraße"/>
    <tag k="public_transport" v="platform"/>
    <tag k="shelter" v="yes"/>
    <tag k="wheelchair" v="yes"/>
  </node>
  <node id="262901223" lat="50.7432886" lon="7.1511137">
    <tag k="VRS:gemeinde" v="BONN"/>
    <tag k="VRS:ortsteil" v="Pützchen"/>
    <tag k="VRS:ref" v="68348"/>
    <tag k="bus" v="yes"/>
    <tag k="highway" v="bus_stop"/>
    <tag k="name" v="Pützchen Kirche"/>
    <tag k="public_transport" v="platform"/>
    <tag k="shelter" v="yes"/>
    <tag k="wheelchair" v="yes"/>
  </node>
  <node id="262904354" lat="50.7972853" lon="7.1214688">
    <tag k="VRS:gemeinde" v="TROISDORF"/>
    <tag k="VRS:name" v="Flachtenstraße/Krankenhaus"/>
    <tag k="VRS:ortsteil" v="Sieglar"/>
    <tag k="VRS:ref" v="54634"/>
    <tag k="bench" v="yes"/>
    <tag k="bin" v="yes"/>
    <tag k="bus" v="yes"/>
    <tag k="highway" v="bus_stop"/>
    <tag k="name" v="Flachtenstraße / Krankenhaus"/>
    <tag k="note" v="501,551"/>
    <tag k="public_transport" v="platform"/>
    <tag k="shelter" v="yes"/>
    <tag k="tactile_paving" v="no"/>
    <tag k="traffic_sign" v="DE:224"/>
  </node>
  <node id="262904372" lat="50.7937188" lon="7.1164387">
    <tag k="VRS:gemeinde" v="TROISDORF"/>
    <tag k="VRS:ortsteil" v="Sieglar"/>
    <tag k="VRS:ref" v="54633"/>
    <tag k="bench" v="yes"/>
    <tag k="bin" v="no"/>
    <tag k="bus" v="yes"/>
    <tag k="highway" v="bus_stop"/>
    <tag k="name" v="Im Kirchtal"/>
    <tag k="note" v="501,551"/>
    <tag k="public_transport" v="platform"/>
    <tag k="shelter" v="yes"/>
    <tag k="tactile_paving" v="no"/>
    <tag k="traffic_sign" v="DE:224"/>
  </node>
  <node id="262904374" lat="50.7912614" lon="7.1105887">
    <tag k="VRS:gemeinde" v="TROISDORF"/>
    <tag k="VRS:ortsteil" v="Eschmar"/>
    <tag k="VRS:ref" v="54632"/>
    <tag k="bench" v="yes"/>
    <tag k="bin" v="yes"/>
    <tag k="bus" v="yes"/>
    <tag k="highway" v="bus_stop"/>
    <tag k="name" v="Eschmar Kirche"/>
    <tag k="note" v="501,551"/>
    <tag k="public_transport" v="platform"/>
    <tag k="shelter" v="yes"/>
    <tag k="tactile_paving" v="no"/>
    <tag k="traffic_sign" v="DE:224"/>
  </node>
  <node id="270501056" lat="50.7966567" lon="7.1222063">
    <tag k="VRS:gemeinde" v="TROISDORF"/>
    <tag k="VRS:name" v="Flachtenstraße/Krankenhaus"/>
    <tag k="VRS:ortsteil" v="Sieglar"/>
    <tag k="VRS:ref" v="54634"/>
    <tag k="bench" v="yes"/>
    <tag k="bin" v="yes"/>
    <tag k="bus" v="yes"/>
    <tag k="highway" v="bus_stop"/>
    <tag k="name" v="Flachtenstraße / Krankenhaus"/>
    <tag k="note" v="501,551"/>
    <tag k="public_transport" v="platform"/>
    <tag k="shelter" v="yes"/>
    <tag k="tactile_paving" v="no"/>
  </node>
  <node id="271446063" lat="50.7339132" lon="7.1188452">
    <tag k="VRS:gemeinde" v="BONN"/>
    <tag k="VRS:ortsteil" v="Beuel"/>
    <tag k="VRS:ref" v="65130"/>
    <tag k="bus" v="yes"/>
    <tag k="highway" v="bus_stop"/>
    <tag k="name" v="Johannesstraße"/>
    <tag k="public_transport" v="platform"/>
    <tag k="shelter" v="yes"/>
    <tag k="wheelchair" v="limited"/>
  </node>
  <node id="271447735" lat="50.7319782" lon="7.1199390">
    <tag k="VRS:gemeinde" v="BONN"/>
    <tag k="VRS:ortsteil" v="Beuel"/>
    <tag k="VRS:ref" v="65432"/>
    <tag k="bus" v="yes"/>
    <tag k="highway" v="bus_stop"/>
    <tag k="name" v="Ringstraße"/>
    <tag k="public_transport" v="platform"/>
    <tag k="shelter" v="yes"/>
    <tag k="wheelchair" v="limited"/>
  </node>
  <node id="271447740" lat="50.7284701" lon="7.1234316">
    <tag k="VRS:gemeinde" v="BONN"/>
    <tag k="VRS:ortsteil" v="Beuel"/>
    <tag k="VRS:ref" v="65433"/>
    <tag k="bus" v="yes"/>
    <tag k="highway" v="bus_stop"/>
    <tag k="name" v="Ernst-Moritz-Arndt-Straße"/>
    <tag k="public_transport" v="platform"/>
    <tag k="shelter" v="yes"/>
    <tag k="wheelchair" v="limited"/>
  </node>
  <node id="271449960" lat="50.7266255" lon="7.1265098">
    <tag k="VRS:gemeinde" v="BONN"/>
    <tag k="VRS:ortsteil" v="Beuel"/>
    <tag k="VRS:ref" v="65434"/>
    <tag k="bench" v="yes"/>
    <tag k="bus" v="yes"/>
    <tag k="highway" v="bus_stop"/>
    <tag k="name" v="Kardinal-Frings-Gymnasium"/>
    <tag k="public_transport" v="platform"/>
    <tag k="shelter" v="yes"/>
    <tag k="tactile_paving" v="yes"/>
    <tag k="wheelchair" v="yes"/>
  </node>
  <node id="276366227" lat="50.7994808" lon="7.1248715">
    <tag k="VRS:gemeinde" v="TROISDORF"/>
    <tag k="VRS:ortsteil" v="Sieglar"/>
    <tag k="VRS:ref" v="54635"/>
    <tag k="bench" v="yes"/>
    <tag k="bin" v="yes"/>
    <tag k="bus" v="yes"/>
    <tag k="highway" v="bus_stop"/>
    <tag k="name" v="Rathausstraße"/>
    <tag k="note" v="501,508,551"/>
    <tag k="public_transport" v="platform"/>
    <tag k="shelter" v="yes"/>
    <tag k="tactile_paving" v="no"/>
    <tag k="traffic_sign" v="DE:224"/>
  </node>
  <node id="297732861" lat="50.7206863" lon="7.1518520">
    <tag k="VRS:gemeinde" v="BONN"/>
    <tag k="VRS:ortsteil" v="Ramersdorf"/>
    <tag k="VRS:ref" v="68716"/>
    <tag k="bus" v="yes"/>
    <tag k="highway" v="bus_stop"/>
    <tag k="name" v="Bonner Bogen"/>
    <tag k="public_transport" v="platform"/>
    <tag k="shelter" v="yes"/>
    <tag k="wheelchair" v="yes"/>
  </node>
  <node id="303339125" lat="50.7248266" lon="7.1351547">
    <tag k="VRS:gemeinde" v="BONN"/>
    <tag k="VRS:ortsteil" v="Beuel"/>
    <tag k="VRS:ref" v="65436"/>
    <tag k="bus" v="yes"/>
    <tag k="highway" v="bus_stop"/>
    <tag k="name" v="Rhenusallee"/>
    <tag k="public_transport" v="platform"/>
    <tag k="shelter" v="yes"/>
    <tag k="wheelchair" v="yes"/>
  </node>
  <node id="311958761" lat="50.7243302" lon="7.2104748">
    <tag k="VRS:gemeinde" v="KÖNIGSWINTER"/>
    <tag k="VRS:name" v="Im Winkel"/>
    <tag k="VRS:ortsteil" v="Vinxel"/>
    <tag k="VRS:ref" v="56652"/>
    <tag k="bus" v="yes"/>
    <tag k="bus_lines" v="520;537;541"/>
    <tag k="highway" v="bus_stop"/>
    <tag k="name" v="Vinxel Im Winkel"/>
    <tag k="network" v="VRS"/>
    <tag k="public_transport" v="platform"/>
    <tag k="shelter" v="yes"/>
    <tag k="wheelchair" v="no"/>
  </node>
  <node id="332694861" lat="50.7226308" lon="7.1433466">
    <tag k="VRS:gemeinde" v="BONN"/>
    <tag k="VRS:ortsteil" v="Beuel"/>
    <tag k="VRS:ref" v="65437"/>
    <tag k="bus" v="yes"/>
    <tag k="highway" v="bus_stop"/>
    <tag k="name" v="T-Mobile"/>
    <tag k="public_transport" v="platform"/>
    <tag k="shelter" v="yes"/>
    <tag k="wheelchair" v="yes"/>
  </node>
  <node id="335630452" lat="50.7372624" lon="7.1023707">
    <tag k="VRS:gemeinde" v="BONN"/>
    <tag k="VRS:ortsteil" v="Innenstadt"/>
    <tag k="VRS:ref" v="61115"/>
    <tag k="bus" v="yes"/>
    <tag k="highway" v="bus_stop"/>
    <tag k="name" v="Bertha-von-Suttner-Platz/Beethovenhaus"/>
    <tag k="operator" v="SWB"/>
    <tag k="platform" v="D"/>
    <tag k="public_transport" v="platform"/>
    <tag k="ref_name" v="Bertha Suttner Platz, Bonn"/>
    <tag k="shelter" v="yes"/>
    <tag k="wheelchair" v="yes"/>
  </node>
  <node id="353069374" lat="50.7166050" lon="7.1040084">
    <tag k="VRS:gemeinde" v="BONN"/>
    <tag k="VRS:ortsteil" v="Kessenich"/>
    <tag k="VRS:ref" v="62249"/>
    <tag k="bus" v="yes"/>
    <tag k="highway" v="bus_stop"/>
    <tag k="name" v="Graf-Stauffenberg-Straße"/>
    <tag k="operator" v="SWB"/>
    <tag k="public_transport" v="platform"/>
    <tag k="shelter" v="yes"/>
    <tag k="wheelchair" v="yes"/>
  </node>
  <node id="365185739" lat="50.7166727" lon="7.2020605">
    <tag k="VRS:gemeinde" v="KÖNIGSWINTER"/>
    <tag k="VRS:name" v="Frankenforst Abzweig"/>
    <tag k="VRS:ortsteil" v="Vinxel"/>
    <tag k="VRS:ref" v="56654"/>
    <tag k="bus" v="yes"/>
    <tag k="bus_lines" v="521"/>
    <tag k="highway" v="bus_stop"/>
    <tag k="name" v="Frankenforst Abzweigung"/>
    <tag k="network" v="VRS"/>
    <tag k="public_transport" v="platform"/>
    <tag k="shelter" v="yes"/>
  </node>
  <node id="365185749" lat="50.7222322" lon="7.2037163">
    <tag k="VRS:gemeinde" v="KÖNIGSWINTER"/>
    <tag k="VRS:ortsteil" v="Vinxel"/>
    <tag k="VRS:ref" v="56651"/>
    <tag k="bus" v="yes"/>
    <tag k="bus_lines" v="537;541"/>
    <tag k="highway" v="bus_stop"/>
    <tag k="name" v="Vinxel Kapelle"/>
    <tag k="network" v="VRS"/>
    <tag k="shelter" v="yes"/>
  </node>
  <node id="365185767" lat="50.7240929" lon="7.2103381">
    <tag k="VRS:gemeinde" v="KÖNIGSWINTER"/>
    <tag k="VRS:name" v="Im Winkel"/>
    <tag k="VRS:ortsteil" v="Vinxel"/>
    <tag k="VRS:ref" v="56652"/>
    <tag k="bus" v="yes"/>
    <tag k="bus_lines" v="521;537;541"/>
    <tag k="highway" v="bus_stop"/>
    <tag k="name" v="Vinxel Im Winkel"/>
    <tag k="network" v="VRS"/>
    <tag k="public_transport" v="platform"/>
    <tag k="shelter" v="yes"/>
    <tag k="wheelchair" v="yes"/>
  </node>
  <node id="379729308" lat="50.7313797" lon="7.1244774">
    <tag k="VRS:gemeinde" v="BONN"/>
    <tag k="VRS:ortsteil" v="Beuel"/>
    <tag k="VRS:ref" v="65440"/>
    <tag k="bus" v="yes"/>
    <tag k="highway" v="bus_stop"/>
    <tag k="name" v="Rudolf-Hahn-Straße"/>
    <tag k="public_transport" v="platform"/>
    <tag k="shelter" v="yes"/>
    <tag k="wheelchair" v="yes"/>
  </node>
  <node id="409131161" lat="50.7176436" lon="7.1009499">
    <tag k="VRS:gemeinde" v="BONN"/>
    <tag k="VRS:ortsteil" v="Kessenich"/>
    <tag k="VRS:ref" v="62280"/>
    <tag k="bus" v="yes"/>
    <tag k="highway" v="bus_stop"/>
    <tag k="name" v="Lotharstraße"/>
    <tag k="public_transport" v="platform"/>
    <tag k="shelter" v="yes"/>
    <tag k="wheelchair" v="yes"/>
  </node>
  <node id="447437864" lat="50.7165009" lon="7.1040922">
    <tag k="VRS:gemeinde" v="BONN"/>
    <tag k="VRS:ortsteil" v="Kessenich"/>
    <tag k="VRS:ref" v="62249"/>
    <tag k="bus" v="yes"/>
    <tag k="highway" v="bus_stop"/>
    <tag k="name" v="Graf-Stauffenberg-Straße"/>
    <tag k="public_transport" v="platform"/>
    <tag k="shelter" v="yes"/>
    <tag k="wheelchair" v="yes"/>
  </node>
  <node id="461869773" lat="50.7286455" lon="7.1042799">
    <tag k="VRS:gemeinde" v="BONN"/>
    <tag k="VRS:name" v="Nassestraße/Arithmeum"/>
    <tag k="VRS:ortsteil" v="Innenstadt"/>
    <tag k="VRS:ref" v="61256"/>
    <tag k="bus" v="yes"/>
    <tag k="highway" v="bus_stop"/>
    <tag k="name" v="Nassestraße / Arithmeum"/>
    <tag k="public_transport" v="platform"/>
    <tag k="shelter" v="yes"/>
    <tag k="wheelchair" v="yes"/>
  </node>
  <node id="466290498" lat="50.7518257" lon="7.1198197">
    <tag k="VRS:gemeinde" v="BONN"/>
    <tag k="VRS:name" v="Stiftsstraße"/>
    <tag k="VRS:ortsteil" v="Schwarzrheindf."/>
    <tag k="VRS:ref" v="65251"/>
    <tag k="bus" v="yes"/>
    <tag k="highway" v="bus_stop"/>
    <tag k="name" v="Stiftsstraße"/>
    <tag k="public_transport" v="platform"/>
    <tag k="shelter" v="yes"/>
  </node>
  <node id="473737892" lat="50.7019914" lon="7.1525679">
    <tag k="VRS:gemeinde" v="BONN"/>
    <tag k="VRS:ortsteil" v="Plittersdorf"/>
    <tag k="VRS:ref" v="66737"/>
    <tag k="bus" v="yes"/>
    <tag k="highway" v="bus_stop"/>
    <tag k="name" v="Kennedyallee"/>
    <tag k="operator" v="SWB Bus und Bahn Verkehrs-GmbH"/>
    <tag k="public_transport" v="platform"/>
    <tag k="shelter" v="yes"/>
    <tag k="wheelchair" v="yes"/>
  </node>
  <node id="486541661" lat="50.7257054" lon="7.1887493">
    <tag k="VRS:gemeinde" v="BONN"/>
    <tag k="VRS:ortsteil" v="Holtorf"/>
    <tag k="VRS:ref" v="68678"/>
    <tag k="bus" v="yes"/>
    <tag k="highway" v="bus_stop"/>
    <tag k="name" v="Oberholtorf"/>
    <tag k="public_transport" v="platform"/>
    <tag k="shelter" v="yes"/>
  </node>
  <node id="486541671" lat="50.7284987" lon="7.1917253">
    <tag k="VRS:gemeinde" v="BONN"/>
    <tag k="VRS:ortsteil" v="Holtorf"/>
    <tag k="VRS:ref" v="68638"/>
    <tag k="bus" v="yes"/>
    <tag k="highway" v="bus_stop"/>
    <tag k="name" v="Ungarten"/>
    <tag k="public_transport" v="platform"/>
    <tag k="shelter" v="yes"/>
    <tag k="wheelchair" v="yes"/>
  </node>
  <node id="500404580" lat="50.7316687" lon="7.1239126">
    <tag k="VRS:gemeinde" v="BONN"/>
    <tag k="VRS:ortsteil" v="Beuel"/>
    <tag k="VRS:ref" v="65440"/>
    <tag k="bus" v="yes"/>
    <tag k="highway" v="bus_stop"/>
    <tag k="name" v="Rudolf-Hahn-Straße"/>
    <tag k="public_transport" v="platform"/>
    <tag k="shelter" v="yes"/>
    <tag k="wheelchair" v="yes"/>
  </node>
  <node id="500404610" lat="50.7281318" lon="7.1278699">
    <tag k="VRS:gemeinde" v="BONN"/>
    <tag k="VRS:ortsteil" v="Beuel"/>
    <tag k="VRS:ref" v="65441"/>
    <tag k="bus" v="yes"/>
    <tag k="highway" v="bus_stop"/>
    <tag k="name" v="Eichendorffstraße"/>
    <tag k="public_transport" v="platform"/>
    <tag k="shelter" v="yes"/>
    <tag k="wheelchair" v="yes"/>
  </node>
  <node id="500404627" lat="50.7279812" lon="7.1283688">
    <tag k="VRS:gemeinde" v="BONN"/>
    <tag k="VRS:ortsteil" v="Beuel"/>
    <tag k="VRS:ref" v="65441"/>
    <tag k="bus" v="yes"/>
    <tag k="highway" v="bus_stop"/>
    <tag k="name" v="Eichendorffstraße"/>
    <tag k="public_transport" v="platform"/>
    <tag k="shelter" v="yes"/>
    <tag k="wheelchair" v="yes"/>
  </node>
  <node id="507464607" lat="50.7401425" lon="7.1917609">
    <tag k="VRS:gemeinde" v="BONN"/>
    <tag k="VRS:ortsteil" v="Hoholz"/>
    <tag k="VRS:ref" v="68563"/>
    <tag k="bus" v="yes"/>
    <tag k="highway" v="bus_stop"/>
    <tag k="name" v="Roleber Kreuzung"/>
    <tag k="public_transport" v="platform"/>
    <tag k="shelter" v="yes"/>
  </node>
  <node id="507464636" lat="50.7424426" lon="7.1364265">
    <tag k="VRS:gemeinde" v="BONN"/>
    <tag k="VRS:ortsteil" v="Beuel"/>
    <tag k="VRS:ref" v="65344"/>
    <tag k="bus" v="yes"/>
    <tag k="highway" v="bus_stop"/>
    <tag k="name" v="Röhfeldstraße"/>
    <tag k="public_transport" v="platform"/>
    <tag k="shelter" v="yes"/>
    <tag k="wheelchair" v="yes"/>
  </node>
  <node id="507464640" lat="50.7302666" lon="7.1489152">
    <tag k="VRS:gemeinde" v="BONN"/>
    <tag k="VRS:ortsteil" v="Ramersdorf"/>
    <tag k="VRS:ref" v="68745"/>
    <tag k="bus" v="yes"/>
    <tag k="highway" v="bus_stop"/>
    <tag k="name" v="Küdinghoven Kirche"/>
    <tag k="public_transport" v="platform"/>
    <tag k="shelter" v="yes"/>
    <tag k="wheelchair" v="limited"/>
  </node>
  <node id="507464643" lat="50.7435262" lon="7.1884460">
    <tag k="VRS:gemeinde" v="BONN"/>
    <tag k="VRS:ortsteil" v="Hoholz"/>
    <tag k="VRS:ref" v="68562"/>
    <tag k="bus" v="yes"/>
    <tag k="highway" v="bus_stop"/>
    <tag k="name" v="Roleber Sportplatz"/>
    <tag k="public_transport" v="platform"/>
    <tag k="shelter" v="yes"/>
  </node>
  <node id="507464701" lat="50.7469531" lon="7.1842207">
    <tag k="VRS:gemeinde" v="BONN"/>
    <tag k="VRS:ortsteil" v="Holzlar"/>
    <tag k="VRS:ref" v="68461"/>
    <tag k="bus" v="yes"/>
    <tag k="covered" v="yes"/>
    <tag k="highway" v="bus_stop"/>
    <tag k="name" v="Heidebergen"/>
    <tag k="public_transport" v="platform"/>
    <tag k="shelter" v="yes"/>
  </node>
  <node id="507464713" lat="50.7389115" lon="7.1424153">
    <tag k="VRS:gemeinde" v="BONN"/>
    <tag k="VRS:ortsteil" v="Ramersdorf"/>
    <tag k="VRS:ref" v="68748"/>
    <tag k="bus" v="yes"/>
    <tag k="highway" v="bus_stop"/>
    <tag k="name" v="Gemeinnützige Werkstatt"/>
    <tag k="public_transport" v="platform"/>
    <tag k="shelter" v="yes"/>
    <tag k="wheelchair" v="limited"/>
  </node>
  <node id="507464742" lat="50.7483860" lon="7.1788184">
    <tag k="VRS:gemeinde" v="BONN"/>
    <tag k="VRS:ortsteil" v="Holzlar"/>
    <tag k="VRS:ref" v="68451"/>
    <tag k="bus" v="yes"/>
    <tag k="highway" v="bus_stop"/>
    <tag k="name" v="Am Tanzberg"/>
    <tag k="public_transport" v="platform"/>
    <tag k="shelter" v="yes"/>
  </node>
  <node id="507464781" lat="50.7505637" lon="7.1679857">
    <tag k="VRS:gemeinde" v="BONN"/>
    <tag k="VRS:ortsteil" v="Holzlar"/>
    <tag k="VRS:ref" v="68458"/>
    <tag k="bus" v="yes"/>
    <tag k="highway" v="bus_stop"/>
    <tag k="name" v="Ennertstraße"/>
    <tag k="operator" v="SWB"/>
    <tag k="public_transport" v="platform"/>
    <tag k="shelter" v="yes"/>
    <tag k="wheelchair" v="yes"/>
  </node>
  <node id="507464792" lat="50.7468730" lon="7.1574260">
    <tag k="VRS:gemeinde" v="BONN"/>
    <tag k="VRS:ortsteil" v="Bechlinghoven"/>
    <tag k="VRS:ref" v="68350"/>
    <tag k="bus" v="yes"/>
    <tag k="highway" v="bus_stop"/>
    <tag k="name" v="Bechlinghoven"/>
    <tag k="public_transport" v="platform"/>
    <tag k="shelter" v="yes"/>
    <tag k="wheelchair" v="limited"/>
  </node>
  <node id="507464862" lat="50.7509760" lon="7.1699470">
    <tag k="VRS:gemeinde" v="BONN"/>
    <tag k="VRS:ortsteil" v="Holzlar"/>
    <tag k="VRS:ref" v="68458"/>
    <tag k="bus" v="yes"/>
    <tag k="highway" v="bus_stop"/>
    <tag k="name" v="Ennertstraße"/>
    <tag k="operator" v="SWB"/>
    <tag k="public_transport" v="platform"/>
    <tag k="shelter" v="yes"/>
    <tag k="wheelchair" v="yes"/>
  </node>
  <node id="507464871" lat="50.7469363" lon="7.1329134">
    <tag k="VRS:gemeinde" v="BONN"/>
    <tag k="VRS:ortsteil" v="Beuel"/>
    <tag k="VRS:ref" v="65355"/>
    <tag k="bus" v="yes"/>
    <tag k="highway" v="bus_stop"/>
    <tag k="name" v="Gerhardstraße"/>
    <tag k="public_transport" v="platform"/>
    <tag k="shelter" v="yes"/>
    <tag k="wheelchair" v="no"/>
  </node>
  <node id="507464888" lat="50.7473361" lon="7.1360027">
    <tag k="VRS:gemeinde" v="BONN"/>
    <tag k="VRS:ortsteil" v="Beuel"/>
    <tag k="VRS:ref" v="65356"/>
    <tag k="bus" v="yes"/>
    <tag k="highway" v="bus_stop"/>
    <tag k="name" v="Schillingsweg"/>
    <tag k="public_transport" v="platform"/>
    <tag k="shelter" v="yes"/>
  </node>
  <node id="510594997" lat="50.7304541" lon="7.1854174">
    <tag k="VRS:gemeinde" v="BONN"/>
    <tag k="VRS:ortsteil" v="Niederholtorf"/>
    <tag k="VRS:ref" v="68677"/>
    <tag k="bus" v="yes"/>
    <tag k="highway" v="bus_stop"/>
    <tag k="name" v="Niederholtorf Kirche"/>
    <tag k="public_transport" v="platform"/>
    <tag k="shelter" v="yes"/>
  </node>
  <node id="510595008" lat="50.7260022" lon="7.1878863">
    <tag k="VRS:gemeinde" v="BONN"/>
    <tag k="VRS:ortsteil" v="Holtorf"/>
    <tag k="VRS:ref" v="68678"/>
    <tag k="bus" v="yes"/>
    <tag k="highway" v="bus_stop"/>
    <tag k="name" v="Oberholtorf"/>
    <tag k="public_transport" v="platform"/>
    <tag k="shelter" v="yes"/>
  </node>
  <node id="645292575" lat="50.7853439" lon="7.1680392">
    <tag k="IBNR" v="440467"/>
    <tag k="VRS:old_ref" v="55938"/>
    <tag k="bus" v="yes"/>
    <tag k="highway" v="bus_stop"/>
    <tag k="name" v="Menden Schulzentrum"/>
    <tag k="note" v="Kein Linienverkehr mehr."/>
    <tag k="shelter" v="yes"/>
    <tag k="wheelchair" v="no"/>
  </node>
  <node id="645319328" lat="50.7617735" lon="7.1855456">
    <tag k="IBNR" v="441555"/>
    <tag k="VRS:gemeinde" v="SANKT AUGUSTIN"/>
    <tag k="VRS:ortsteil" v="Niederberg"/>
    <tag k="VRS:ref" v="55872"/>
    <tag k="bus" v="yes"/>
    <tag k="highway" v="bus_stop"/>
    <tag k="name" v="Hirschbergweg"/>
    <tag k="public_transport" v="platform"/>
    <tag k="ref_name" v="Hirschbergweg, Sankt Augustin"/>
    <tag k="shelter" v="yes"/>
  </node>
  <node id="645525732" lat="50.7416155" lon="7.2454015">
    <tag k="IBNR" v="444703"/>
    <tag k="VRS:gemeinde" v="KÖNIGSWINTER"/>
    <tag k="VRS:ortsteil" v="Uthweiler"/>
    <tag k="VRS:ref" v="56632"/>
    <tag k="bus" v="yes"/>
    <tag k="highway" v="bus_stop"/>
    <tag k="name" v="Oberscheuren"/>
    <tag k="public_transport" v="platform"/>
    <tag k="shelter" v="yes"/>
  </node>
  <node id="645525734" lat="50.7415855" lon="7.2456273">
    <tag k="IBNR" v="444703"/>
    <tag k="VRS:gemeinde" v="KÖNIGSWINTER"/>
    <tag k="VRS:ortsteil" v="Uthweiler"/>
    <tag k="VRS:ref" v="56632"/>
    <tag k="bus" v="yes"/>
    <tag k="highway" v="bus_stop"/>
    <tag k="name" v="Oberscheuren"/>
    <tag k="public_transport" v="platform"/>
    <tag k="shelter" v="yes"/>
  </node>
  <node id="645525739" lat="50.7472450" lon="7.2369460">
    <tag k="IBNR" v="440412"/>
    <tag k="VRS:gemeinde" v="HENNEF"/>
    <tag k="VRS:ortsteil" v="Dambroich"/>
    <tag k="VRS:ref" v="57943"/>
    <tag k="bus" v="yes"/>
    <tag k="highway" v="bus_stop"/>
    <tag k="name" v="Dambroich Pleistalstraße"/>
    <tag k="public_transport" v="platform"/>
    <tag k="shelter" v="yes"/>
  </node>
  <node id="645525741" lat="50.7469209" lon="7.2375195">
    <tag k="IBNR" v="440412"/>
    <tag k="VRS:gemeinde" v="HENNEF"/>
    <tag k="VRS:ortsteil" v="Dambroich"/>
    <tag k="VRS:ref" v="57943"/>
    <tag k="bus" v="yes"/>
    <tag k="highway" v="bus_stop"/>
    <tag k="name" v="Dambroich Pleistalstraße"/>
    <tag k="public_transport" v="platform"/>
    <tag k="shelter" v="yes"/>
  </node>
  <node id="994043000" lat="50.7319251" lon="7.1002982">
    <tag k="VRS:gemeinde" v="BONN"/>
    <tag k="VRS:name" v="Bonn Hauptbahnhof"/>
    <tag k="VRS:ortsteil" v="Innenstadt"/>
    <tag k="VRS:ref" v="61101"/>
    <tag k="bench" v="yes"/>
    <tag k="bus" v="yes"/>
    <tag k="highway" v="bus_stop"/>
    <tag k="name" v="Bonn Hauptbahnhof"/>
    <tag k="platform" v="A6"/>
    <tag k="public_transport" v="platform"/>
    <tag k="ref" v="A6"/>
    <tag k="shelter" v="yes"/>
    <tag k="tactile_paving" v="no"/>
    <tag k="wheelchair" v="yes"/>
  </node>
  <node id="994043057" lat="50.7318800" lon="7.1000276">
    <tag k="VRS:gemeinde" v="BONN"/>
    <tag k="VRS:name" v="Bonn Hauptbahnhof"/>
    <tag k="VRS:ortsteil" v="Innenstadt"/>
    <tag k="VRS:ref" v="61101"/>
    <tag k="bench" v="yes"/>
    <tag k="bus" v="yes"/>
    <tag k="highway" v="bus_stop"/>
    <tag k="name" v="Bonn Hauptbahnhof B3"/>
    <tag k="platform" v="B3"/>
    <tag k="public_transport" v="platform"/>
    <tag k="ref" v="B3"/>
    <tag k="shelter" v="yes"/>
    <tag k="tactile_paving" v="no"/>
    <tag k="wheelchair" v="yes"/>
  </node>
  <node id="994043217" lat="50.7319874" lon="7.1000554">
    <tag k="VRS:gemeinde" v="BONN"/>
    <tag k="VRS:name" v="Bonn Hauptbahnhof"/>
    <tag k="VRS:ortsteil" v="Innenstadt"/>
    <tag k="VRS:ref" v="61101"/>
    <tag k="bench" v="yes"/>
    <tag k="bus" v="yes"/>
    <tag k="highway" v="bus_stop"/>
    <tag k="name" v="Bonn Hauptbahnhof A5"/>
    <tag k="platform" v="A5"/>
    <tag k="public_transport" v="platform"/>
    <tag k="ref" v="A5"/>
    <tag k="shelter" v="yes"/>
    <tag k="tactile_paving" v="no"/>
    <tag k="wheelchair" v="yes"/>
  </node>
  <node id="1081114781" lat="50.7372666" lon="7.1021936">
    <tag k="VRS:gemeinde" v="BONN"/>
    <tag k="VRS:ortsteil" v="Innenstadt"/>
    <tag k="VRS:ref" v="61115"/>
    <tag k="bus" v="yes"/>
    <tag k="highway" v="bus_stop"/>
    <tag k="name" v="Bertha-von-Suttner-Platz/Beethovenhaus"/>
    <tag k="note" v="Laut Mast halten hier N4, N6 und N8. Defacto halten die Busse aber alle am anderem Mast."/>
    <tag k="operator" v="SWB"/>
    <tag k="platform" v="D"/>
    <tag k="public_transport" v="platform"/>
    <tag k="shelter" v="yes"/>
    <tag k="wheelchair" v="yes"/>
  </node>
  <node id="1544272625" lat="50.7221009" lon="7.2040942">
    <tag k="VRS:gemeinde" v="KÖNIGSWINTER"/>
    <tag k="VRS:ortsteil" v="Vinxel"/>
    <tag k="VRS:ref" v="56651"/>
    <tag k="bus" v="yes"/>
    <tag k="bus_lines" v="537;541"/>
    <tag k="highway" v="bus_stop"/>
    <tag k="name" v="Vinxel Kapelle"/>
    <tag k="network" v="VRS"/>
    <tag k="shelter" v="yes"/>
  </node>
  <node id="1579816220" lat="50.7497696" lon="7.1749133">
    <tag k="VRS:gemeinde" v="BONN"/>
    <tag k="VRS:ortsteil" v="Holzlar"/>
    <tag k="VRS:ref" v="68460"/>
    <tag k="bus" v="yes"/>
    <tag k="highway" v="bus_stop"/>
    <tag k="name" v="Kohlkauler Platz"/>
    <tag k="public_transport" v="platform"/>
    <tag k="shelter" v="yes"/>
    <tag k="wheelchair" v="yes"/>
  </node>
  <node id="1646273062" lat="50.7673074" lon="7.1040258">
    <tag k="VRS:gemeinde" v="TROISDORF"/>
    <tag k="VRS:ortsteil" v="Bergheim"/>
    <tag k="VRS:ref" v="54542"/>
    <tag k="bus" v="yes"/>
    <tag k="highway" v="bus_stop"/>
    <tag k="name" v="Fährhaus"/>
    <tag k="public_transport" v="platform"/>
    <tag k="shelter" v="yes"/>
  </node>
  <node id="2268257496" lat="50.7386004" lon="7.2261565">
    <tag k="bench" v="yes"/>
    <tag k="highway" v="bus_stop"/>
    <tag k="name" v="Am Tor"/>
    <tag k="shelter" v="yes"/>
    <tag k="tactile_paving" v="no"/>
  </node>
  <node id="2545676855" lat="50.7471831" lon="7.2411818">
    <tag k="bench" v="yes"/>
    <tag k="highway" v="bus_stop"/>
    <tag k="shelter" v="yes"/>
    <tag k="tactile_paving" v="no"/>
  </node>

</osm>
